CCSDS_OMM_VERS = 2.0
CREATION_DATE  = 
ORIGINATOR     = 

OBJECT_NAME    = ISS (ZARYA)
OBJECT_ID      = 1998-067A
CENTER_NAME    = EARTH
REF_FRAME      = TEME
TIME_SYSTEM    = UTC
MEAN_ELEMENT_THEORY = SGP/SGP4

EPOCH          = 2026-03-08T09:59:22.308288
MEAN_MOTION    = 15.48526204
ECCENTRICITY   = .0008065
INCLINATION    = 51.6319
RA_OF_ASC_NODE = 78.6521
ARG_OF_PERICENTER = 170.0958
MEAN_ANOMALY   = 190.0190

EPHEMERIS_TYPE = 0
CLASSIFICATION_TYPE = U
NORAD_CAT_ID   = 25544
ELEMENT_SET_NO = 999
REV_AT_EPOCH   = 55613
BSTAR          = .21617E-3
MEAN_MOTION_DOT = .11291E-3
MEAN_MOTION_DDOT = 0

CCSDS_OMM_VERS = 2.0
CREATION_DATE  = 
ORIGINATOR     = 

OBJECT_NAME    = POISK
OBJECT_ID      = 2009-060A
CENTER_NAME    = EARTH
REF_FRAME      = TEME
TIME_SYSTEM    = UTC
MEAN_ELEMENT_THEORY = SGP/SGP4

EPOCH          = 2026-03-08T09:59:22.308288
MEAN_MOTION    = 15.48526204
ECCENTRICITY   = .0008065
INCLINATION    = 51.6319
RA_OF_ASC_NODE = 78.6521
ARG_OF_PERICENTER = 170.0958
MEAN_ANOMALY   = 190.0190

EPHEMERIS_TYPE = 0
CLASSIFICATION_TYPE = U
NORAD_CAT_ID   = 36086
ELEMENT_SET_NO = 999
REV_AT_EPOCH   = 55586
BSTAR          = .21617E-3
MEAN_MOTION_DOT = .11291E-3
MEAN_MOTION_DDOT = 0

CCSDS_OMM_VERS = 2.0
CREATION_DATE  = 
ORIGINATOR     = 

OBJECT_NAME    = CSS (TIANHE)
OBJECT_ID      = 2021-035A
CENTER_NAME    = EARTH
REF_FRAME      = TEME
TIME_SYSTEM    = UTC
MEAN_ELEMENT_THEORY = SGP/SGP4

EPOCH          = 2026-03-08T10:27:25.356096
MEAN_MOTION    = 15.60585348
ECCENTRICITY   = .0006977
INCLINATION    = 41.4663
RA_OF_ASC_NODE = 215.7910
ARG_OF_PERICENTER = 265.0647
MEAN_ANOMALY   = 94.9395

EPHEMERIS_TYPE = 0
CLASSIFICATION_TYPE = U
NORAD_CAT_ID   = 48274
ELEMENT_SET_NO = 999
REV_AT_EPOCH   = 27741
BSTAR          = .34207E-3
MEAN_MOTION_DOT = .28893E-3
MEAN_MOTION_DDOT = 0

CCSDS_OMM_VERS = 2.0
CREATION_DATE  = 
ORIGINATOR     = 

OBJECT_NAME    = ISS (NAUKA)
OBJECT_ID      = 2021-066A
CENTER_NAME    = EARTH
REF_FRAME      = TEME
TIME_SYSTEM    = UTC
MEAN_ELEMENT_THEORY = SGP/SGP4

EPOCH          = 2026-03-08T09:59:22.308288
MEAN_MOTION    = 15.48526204
ECCENTRICITY   = .0008065
INCLINATION    = 51.6319
RA_OF_ASC_NODE = 78.6521
ARG_OF_PERICENTER = 170.0958
MEAN_ANOMALY   = 190.0190

EPHEMERIS_TYPE = 0
CLASSIFICATION_TYPE = U
NORAD_CAT_ID   = 49044
ELEMENT_SET_NO = 999
REV_AT_EPOCH   = 55590
BSTAR          = .21617E-3
MEAN_MOTION_DOT = .11291E-3
MEAN_MOTION_DDOT = 0

CCSDS_OMM_VERS = 2.0
CREATION_DATE  = 
ORIGINATOR     = 

OBJECT_NAME    = FREGAT DEB
OBJECT_ID      = 2011-037PF
CENTER_NAME    = EARTH
REF_FRAME      = TEME
TIME_SYSTEM    = UTC
MEAN_ELEMENT_THEORY = SGP/SGP4

EPOCH          = 2026-03-07T19:54:49.993920
MEAN_MOTION    = 12.40073478
ECCENTRICITY   = .0958261
INCLINATION    = 51.6497
RA_OF_ASC_NODE = 306.3359
ARG_OF_PERICENTER = 55.1768
MEAN_ANOMALY   = 313.5497

EPHEMERIS_TYPE = 0
CLASSIFICATION_TYPE = U
NORAD_CAT_ID   = 49271
ELEMENT_SET_NO = 999
REV_AT_EPOCH   = 21246
BSTAR          = .47091E-1
MEAN_MOTION_DOT = .32535E-3
MEAN_MOTION_DDOT = 0

CCSDS_OMM_VERS = 2.0
CREATION_DATE  = 
ORIGINATOR     = 

OBJECT_NAME    = CSS (WENTIAN)
OBJECT_ID      = 2022-085A
CENTER_NAME    = EARTH
REF_FRAME      = TEME
TIME_SYSTEM    = UTC
MEAN_ELEMENT_THEORY = SGP/SGP4

EPOCH          = 2026-03-08T10:27:25.356096
MEAN_MOTION    = 15.60585348
ECCENTRICITY   = .0006977
INCLINATION    = 41.4663
RA_OF_ASC_NODE = 215.7910
ARG_OF_PERICENTER = 265.0647
MEAN_ANOMALY   = 94.9395

EPHEMERIS_TYPE = 0
CLASSIFICATION_TYPE = U
NORAD_CAT_ID   = 53239
ELEMENT_SET_NO = 999
REV_AT_EPOCH   = 27710
BSTAR          = .34207E-3
MEAN_MOTION_DOT = .28893E-3
MEAN_MOTION_DDOT = 0

CCSDS_OMM_VERS = 2.0
CREATION_DATE  = 
ORIGINATOR     = 

OBJECT_NAME    = CSS (MENGTIAN)
OBJECT_ID      = 2022-143A
CENTER_NAME    = EARTH
REF_FRAME      = TEME
TIME_SYSTEM    = UTC
MEAN_ELEMENT_THEORY = SGP/SGP4

EPOCH          = 2026-03-08T10:27:25.356096
MEAN_MOTION    = 15.60585348
ECCENTRICITY   = .0006977
INCLINATION    = 41.4663
RA_OF_ASC_NODE = 215.7910
ARG_OF_PERICENTER = 265.0647
MEAN_ANOMALY   = 94.9395

EPHEMERIS_TYPE = 0
CLASSIFICATION_TYPE = U
NORAD_CAT_ID   = 54216
ELEMENT_SET_NO = 999
REV_AT_EPOCH   = 27707
BSTAR          = .34207E-3
MEAN_MOTION_DOT = .28893E-3
MEAN_MOTION_DDOT = 0

CCSDS_OMM_VERS = 2.0
CREATION_DATE  = 
ORIGINATOR     = 

OBJECT_NAME    = PROGRESS-MS 31
OBJECT_ID      = 2025-146A
CENTER_NAME    = EARTH
REF_FRAME      = TEME
TIME_SYSTEM    = UTC
MEAN_ELEMENT_THEORY = SGP/SGP4

EPOCH          = 2026-03-08T09:59:22.308288
MEAN_MOTION    = 15.48526204
ECCENTRICITY   = .0008065
INCLINATION    = 51.6319
RA_OF_ASC_NODE = 78.6521
ARG_OF_PERICENTER = 170.0958
MEAN_ANOMALY   = 190.0190

EPHEMERIS_TYPE = 0
CLASSIFICATION_TYPE = U
NORAD_CAT_ID   = 64751
ELEMENT_SET_NO = 999
REV_AT_EPOCH   = 55594
BSTAR          = .21617E-3
MEAN_MOTION_DOT = .11291E-3
MEAN_MOTION_DDOT = 0

CCSDS_OMM_VERS = 2.0
CREATION_DATE  = 
ORIGINATOR     = 

OBJECT_NAME    = TIANZHOU-9
OBJECT_ID      = 2025-149A
CENTER_NAME    = EARTH
REF_FRAME      = TEME
TIME_SYSTEM    = UTC
MEAN_ELEMENT_THEORY = SGP/SGP4

EPOCH          = 2026-03-08T10:27:25.356096
MEAN_MOTION    = 15.60585348
ECCENTRICITY   = .0006977
INCLINATION    = 41.4663
RA_OF_ASC_NODE = 215.7910
ARG_OF_PERICENTER = 265.0647
MEAN_ANOMALY   = 94.9395

EPHEMERIS_TYPE = 0
CLASSIFICATION_TYPE = U
NORAD_CAT_ID   = 64786
ELEMENT_SET_NO = 999
REV_AT_EPOCH   = 27708
BSTAR          = .34207E-3
MEAN_MOTION_DOT = .28893E-3
MEAN_MOTION_DDOT = 0

CCSDS_OMM_VERS = 2.0
CREATION_DATE  = 
ORIGINATOR     = 

OBJECT_NAME    = PROGRESS-MS 32
OBJECT_ID      = 2025-204A
CENTER_NAME    = EARTH
REF_FRAME      = TEME
TIME_SYSTEM    = UTC
MEAN_ELEMENT_THEORY = SGP/SGP4

EPOCH          = 2026-03-08T09:59:22.308288
MEAN_MOTION    = 15.48526204
ECCENTRICITY   = .0008065
INCLINATION    = 51.6319
RA_OF_ASC_NODE = 78.6521
ARG_OF_PERICENTER = 170.0958
MEAN_ANOMALY   = 190.0190

EPHEMERIS_TYPE = 0
CLASSIFICATION_TYPE = U
NORAD_CAT_ID   = 65586
ELEMENT_SET_NO = 999
REV_AT_EPOCH   = 55606
BSTAR          = .21617E-3
MEAN_MOTION_DOT = .11291E-3
MEAN_MOTION_DDOT = 0

CCSDS_OMM_VERS = 2.0
CREATION_DATE  = 
ORIGINATOR     = 

OBJECT_NAME    = CYGNUS NG-23
OBJECT_ID      = 2025-208A
CENTER_NAME    = EARTH
REF_FRAME      = TEME
TIME_SYSTEM    = UTC
MEAN_ELEMENT_THEORY = SGP/SGP4

EPOCH          = 2026-03-08T09:59:22.308288
MEAN_MOTION    = 15.48526204
ECCENTRICITY   = .0008065
INCLINATION    = 51.6319
RA_OF_ASC_NODE = 78.6521
ARG_OF_PERICENTER = 170.0958
MEAN_ANOMALY   = 190.0190

EPHEMERIS_TYPE = 0
CLASSIFICATION_TYPE = U
NORAD_CAT_ID   = 65616
ELEMENT_SET_NO = 999
REV_AT_EPOCH   = 55610
BSTAR          = .21617E-3
MEAN_MOTION_DOT = .11291E-3
MEAN_MOTION_DDOT = 0

CCSDS_OMM_VERS = 2.0
CREATION_DATE  = 
ORIGINATOR     = 

OBJECT_NAME    = ISS OBJECT XK
OBJECT_ID      = 1998-067XK
CENTER_NAME    = EARTH
REF_FRAME      = TEME
TIME_SYSTEM    = UTC
MEAN_ELEMENT_THEORY = SGP/SGP4

EPOCH          = 2026-03-08T07:57:39.182400
MEAN_MOTION    = 16.21196240
ECCENTRICITY   = .0002844
INCLINATION    = 51.6118
RA_OF_ASC_NODE = 53.1246
ARG_OF_PERICENTER = 127.3723
MEAN_ANOMALY   = 232.7555

EPHEMERIS_TYPE = 0
CLASSIFICATION_TYPE = U
NORAD_CAT_ID   = 65731
ELEMENT_SET_NO = 999
REV_AT_EPOCH   = 2668
BSTAR          = .13172E-2
MEAN_MOTION_DOT = .2881675E-1
MEAN_MOTION_DDOT = .11879E-4

