ISS (ZARYA)             
1 25544U 98067A   26067.41623042  .00011291  00000+0  21617-3 0  9996
2 25544  51.6319  78.6521 0008065 170.0958 190.0190 15.48526204556132
POISK                   
1 36086U 09060A   26067.41623042  .00011291  00000+0  21617-3 0  9994
2 36086  51.6319  78.6521 0008065 170.0958 190.0190 15.48526204555864
CSS (TIANHE)            
1 48274U 21035A   26067.43571014  .00028893  00000+0  34207-3 0  9990
2 48274  41.4663 215.7910 0006977 265.0647  94.9395 15.60585348277410
ISS (NAUKA)             
1 49044U 21066A   26067.41623042  .00011291  00000+0  21617-3 0  9992
2 49044  51.6319  78.6521 0008065 170.0958 190.0190 15.48526204555907
FREGAT DEB              
1 49271U 11037PF  26066.82974530  .00032535  00000+0  47091-1 0  9992
2 49271  51.6497 306.3359 0958261  55.1768 313.5497 12.40073478212462
CSS (WENTIAN)           
1 53239U 22085A   26067.43571014  .00028893  00000+0  34207-3 0  9993
2 53239  41.4663 215.7910 0006977 265.0647  94.9395 15.60585348277103
CSS (MENGTIAN)          
1 54216U 22143A   26067.43571014  .00028893  00000+0  34207-3 0  9994
2 54216  41.4663 215.7910 0006977 265.0647  94.9395 15.60585348277075
PROGRESS-MS 31          
1 64751U 25146A   26067.41623042  .00011291  00000+0  21617-3 0  9997
2 64751  51.6319  78.6521 0008065 170.0958 190.0190 15.48526204555943
TIANZHOU-9              
1 64786U 25149A   26067.43571014  .00028893  00000+0  34207-3 0  9996
2 64786  41.4663 215.7910 0006977 265.0647  94.9395 15.60585348277089
PROGRESS-MS 32          
1 65586U 25204A   26067.41623042  .00011291  00000+0  21617-3 0  9999
2 65586  51.6319  78.6521 0008065 170.0958 190.0190 15.48526204556064
CYGNUS NG-23            
1 65616U 25208A   26067.41623042  .00011291  00000+0  21617-3 0  9997
2 65616  51.6319  78.6521 0008065 170.0958 190.0190 15.48526204556103
ISS OBJECT XK           
1 65731U 98067XK  26067.33170350  .02881675  11879-4  13172-2 0  9998
2 65731  51.6118  53.1246 0002844 127.3723 232.7555 16.21196240 26683
